{
  "norad_id": 56693,
  "name": "STARLINK-30067",
  "history": [
    {
      "epoch": "2026-03-28T14:37:39.420192",
      "apogee_km": 560.4209835759557,
      "perigee_km": 557.7640246758756,
      "latitude_deg": -25.898097844999782,
      "longitude_deg": -92.18953312002122,
      "semi_major_axis_km": 6937.229504125916,
      "eccentricity": 0.0001915,
      "inclination_deg": 43.0038,
      "raan_deg": 171.8643,
      "arg_perigee_deg": 272.0761,
      "mean_anomaly_deg": 87.9862,
      "mean_motion_rev_day": 15.02531786
    }
  ]
}